KZ-11 R/B               
1 69628U 26138H   26193.90834216  .00780150  97501-5  75497-3 0  9998
2 69628  55.1520 167.7492 0377051 143.6026 219.1292 15.43010363  3894
CENTISPACE-1 GROUP 05 O*
1 69636U 26138J   26194.40472368 -.00000256  00000+0 -51944-4 0  9997
2 69636  55.1383 184.3032 0009547 341.3483  18.7141 14.15842380  3707
VICTUS HAZE PUMA        
1 69646U 26142A   26194.66617709  .00002127  00000+0  98816-4 0  9997
2 69646  97.4471  91.9874 0025032 271.5686  88.2682 15.20841534  3695
HOKUSHIN-1              
1 69648U 98067YH  26193.97333506  .00017654  00000+0  30626-3 0  9992
2 69648  51.6302 172.2596 0006128 322.5692  37.4870 15.50931223  3654
STARLINK-37656          
1 69649U 26143A   26194.08491228  .00038574  00000+0  70684-3 0  9990
2 69649  97.2854 237.9473 0001077 101.4008 258.7365 15.49213961  4556
STARLINK-37646          
1 69650U 26143B   26194.58334491  .00067198  00000+0  12264-2 0  9998
2 69650  97.2850 238.6265 0001730  85.9925 222.8670 15.49194960  4706
STARLINK-37749          
1 69651U 26143C   26194.58334491  .00065134  00000+0  11897-2 0  9998
2 69651  97.2849 238.6090 0001067 138.7201 131.8782 15.49182465  4708
STARLINK-37819          
1 69652U 26143D   26194.58334491  .00072185  00000+0  13179-2 0  9998
2 69652  97.2847 238.5832 0001328  82.2919 123.8374 15.49165028  4703
STARLINK-37729          
1 69653U 26143E   26194.61052377  .00270889  00000+0  12148-2 0  9999
2 69653  97.2840 238.9195 0001635 201.2694 158.8508 15.83444617  4661
STARLINK-37838          
1 69654U 26143F   26194.58334491  .00071001  00000+0  12963-2 0  9996
2 69654  97.2843 238.6529 0001268  66.7859 304.3572 15.49169710  4706
STARLINK-37884          
1 69655U 26143G   26194.61933450  .00024869  00000+0  45737-3 0  9997
2 69655  97.2851 238.5996 0001417  91.6485 268.4929 15.49195366  4646
STARLINK-37876          
1 69656U 26143H   26194.58334491  .00076267  00000+0  13915-2 0  9995
2 69656  97.2843 238.6532 0001367  98.8037 269.9305 15.49166830  4605
STARLINK-37784          
1 69657U 26143J   26194.58334491  .00075791  00000+0  13832-2 0  9995
2 69657  97.2846 238.5811 0001233  90.4380 110.7471 15.49161698  4603
STARLINK-37851          
1 69658U 26143K   26194.58334491  .00076070  00000+0  13883-2 0  9993
2 69658  97.2845 238.6474 0000958 106.5253 250.2155 15.49160393  4598
STARLINK-37229          
1 69659U 26143L   26194.58334491  .00075667  00000+0  13805-2 0  9999
2 69659  97.2850 238.6003 0001371 103.0116 145.0583 15.49170933  4646
STARLINK-37556          
1 69660U 26143M   26194.58334491  .00061417  00000+0  11230-2 0  9999
2 69660  97.2927 238.6270 0001449  97.1777 214.8417 15.49167184  4646
STARLINK-37867          
1 69661U 26143N   26194.58334491  .00065392  00000+0  11948-2 0  9992
2 69661  97.2844 238.6465 0001932  89.2837 265.9693 15.49169853  4601
STARLINK-37852          
1 69662U 26143P   26194.58334491  .00071826  00000+0  13111-2 0  9996
2 69662  97.2846 238.5710 0001254  96.7015  81.5636 15.49172120  4604
STARLINK-37554          
1 69663U 26143Q   26194.58334491  .00076646  00000+0  13986-2 0  9992
2 69663  97.2849 238.6238 0000929  97.5315 204.9961 15.49161774  4643
STARLINK-37830          
1 69664U 26143R   26194.58334491  .00079391  00000+0  14479-2 0  9991
2 69664  97.2851 238.5879 0001525  95.7537 122.5222 15.49164968  4593
STARLINK-37837          
1 69665U 26143S   26194.58334491 -.02773158  00000+0 -68601-1 0  9993
2 69665  97.2853 238.6493 0000964  68.6957 284.5167 15.44509150  4600
STARLINK-37943          
1 69666U 26143T   26194.58334491  .00074829  00000+0  13654-2 0  9998
2 69666  97.2850 238.5891 0001580  93.4496 127.7884 15.49169349  4609
STARLINK-37941          
1 69667U 26143U   26194.58334491  .00073072  00000+0  13339-2 0  9998
2 69667  97.2853 238.6181 0000996  91.2642 200.3490 15.49166011  4609
STARLINK-37930          
1 69668U 26143V   26194.58334491  .00072022  00000+0  13149-2 0  9992
2 69668  97.2851 238.6195 0001135  94.9288 199.6812 15.49167005  4595
STARLINK-37945          
1 69669U 26143W   26194.58334491  .00057253  00000+0  10474-2 0  9990
2 69669  97.2916 238.6497 0001674 100.6116 265.8958 15.49170101  4606
STARLINK-37948          
1 69670U 26143X   26194.63010270  .00029336  00000+0  53877-3 0  9990
2 69670  97.2859 238.5855 0000297   4.8787 355.2467 15.49204498  4572
STARLINK-37949          
1 69671U 26143Y   26194.58334491  .00072619  00000+0  13256-2 0  9997
2 69671  97.2847 238.5945 0000624 103.2444 132.2564 15.49167178  4606
STARLINK-37946          
1 69672U 26143Z   26194.58334491  .00070543  00000+0  12882-2 0  9996
2 69672  97.2849 238.6287 0001200  88.6769 224.4782 15.49166318  4607
TJS-26A                 
1 69674U 26144A   26193.29904564 -.00000341  00000+0  00000+0 0  9996
2 69674   6.9538 323.2302 0004208 347.4913 194.6526  1.00274367   198
CZ-7A R/B               
1 69675U 26144B   26194.14466871  .00733822 -70926-5  79450-3 0  9992
2 69675  19.4499 315.9953 7117418 194.9542 121.1588  2.56672103   513
