OBJECT_NAME,OBJECT_ID,EPOCH,MEAN_MOTION,ECCENTRICITY,INCLINATION,RA_OF_ASC_NODE,ARG_OF_PERICENTER,MEAN_ANOMALY,EPHEMERIS_TYPE,CLASSIFICATION_TYPE,NORAD_CAT_ID,ELEMENT_SET_NO,REV_AT_EPOCH,BSTAR,MEAN_MOTION_DOT,MEAN_MOTION_DDOT
KZ-11 R/B,2026-138H,2026-07-12T21:48:00.762624,15.43010363,.03770511,55.1520,167.7492,143.6026,219.1292,0,U,69628,999,389,.75497354E-3,.78015E-2,.9750105E-5
CENTISPACE-1 GROUP 05 OBJECT J,2026-138J,2026-07-13T09:42:48.125952,14.15842380,.00095471,55.1383,184.3032,341.3483,18.7141,0,U,69636,999,370,-.51944164E-4,-.256E-5,0
VICTUS HAZE PUMA,2026-142A,2026-07-13T15:59:17.700576,15.20841534,.00250321,97.4471,91.9874,271.5686,88.2682,0,U,69646,999,369,.98816407E-4,.2127E-4,0
HOKUSHIN-1,1998-067YH,2026-07-12T23:21:36.149184,15.50931223,.00061287,51.6302,172.2596,322.5692,37.4870,0,U,69648,999,365,.30625514E-3,.17654E-3,0
STARLINK-37656,2026-143A,2026-07-13T02:02:16.420992,15.49213961,.00010772,97.2854,237.9473,101.4008,258.7365,0,U,69649,999,455,.70683732E-3,.38574E-3,0
STARLINK-37646,2026-143B,2026-07-13T14:00:01.000224,15.49194960,.00017302,97.2850,238.6265,85.9925,222.8670,0,U,69650,999,470,.12264221E-2,.67198E-3,0
STARLINK-37749,2026-143C,2026-07-13T14:00:01.000224,15.49182465,.00010673,97.2849,238.6090,138.7201,131.8782,0,U,69651,999,470,.11896675E-2,.65134E-3,0
STARLINK-37819,2026-143D,2026-07-13T14:00:01.000224,15.49165028,.00013285,97.2847,238.5832,82.2919,123.8374,0,U,69652,999,470,.13178839E-2,.72185E-3,0
STARLINK-37729,2026-143E,2026-07-13T14:39:09.253728,15.83444617,.00016353,97.2840,238.9195,201.2694,158.8508,0,U,69653,999,466,.12147837E-2,.270889E-2,0
STARLINK-37838,2026-143F,2026-07-13T14:00:01.000224,15.49169710,.00012683,97.2843,238.6529,66.7859,304.3572,0,U,69654,999,470,.12962756E-2,.71001E-3,0
STARLINK-37884,2026-143G,2026-07-13T14:51:50.500800,15.49195366,.00014171,97.2851,238.5996,91.6485,268.4929,0,U,69655,999,464,.45737135E-3,.24869E-3,0
STARLINK-37876,2026-143H,2026-07-13T14:00:01.000224,15.49166830,.0001367,97.2843,238.6532,98.8037,269.9305,0,U,69656,999,460,.13915093E-2,.76267E-3,0
STARLINK-37784,2026-143J,2026-07-13T14:00:01.000224,15.49161698,.00012334,97.2846,238.5811,90.4380,110.7471,0,U,69657,999,460,.13831727E-2,.75791E-3,0
STARLINK-37851,2026-143K,2026-07-13T14:00:01.000224,15.49160393,.00009585,97.2845,238.6474,106.5253,250.2155,0,U,69658,999,459,.13882715E-2,.7607E-3,0
STARLINK-37229,2026-143L,2026-07-13T14:00:01.000224,15.49170933,.0001371,97.2850,238.6003,103.0116,145.0583,0,U,69659,999,464,.13804811E-2,.75667E-3,0
STARLINK-37556,2026-143M,2026-07-13T14:00:01.000224,15.49167184,.00014499,97.2927,238.6270,97.1777,214.8417,0,U,69660,999,464,.11229826E-2,.61417E-3,0
STARLINK-37867,2026-143N,2026-07-13T14:00:01.000224,15.49169853,.00019323,97.2844,238.6465,89.2837,265.9693,0,U,69661,999,460,.11948204E-2,.65392E-3,0
STARLINK-37852,2026-143P,2026-07-13T14:00:01.000224,15.49172120,.00012548,97.2846,238.5710,96.7015,81.5636,0,U,69662,999,460,.13110687E-2,.71826E-3,0
STARLINK-37554,2026-143Q,2026-07-13T14:00:01.000224,15.49161774,.00009296,97.2849,238.6238,97.5315,204.9961,0,U,69663,999,464,.13985992E-2,.76646E-3,0
STARLINK-37830,2026-143R,2026-07-13T14:00:01.000224,15.49164968,.00015257,97.2851,238.5879,95.7537,122.5222,0,U,69664,999,459,.1447937E-2,.79391E-3,0
STARLINK-37837,2026-143S,2026-07-13T14:00:01.000224,15.44509150,.00009645,97.2853,238.6493,68.6957,284.5167,0,U,69665,999,460,-.68600571E-1,-.2773158E-1,0
STARLINK-37943,2026-143T,2026-07-13T14:00:01.000224,15.49169349,.00015801,97.2850,238.5891,93.4496,127.7884,0,U,69666,999,460,.1365424E-2,.74829E-3,0
STARLINK-37941,2026-143U,2026-07-13T14:00:01.000224,15.49166011,.00009967,97.2853,238.6181,91.2642,200.3490,0,U,69667,999,460,.13338798E-2,.73072E-3,0
STARLINK-37930,2026-143V,2026-07-13T14:00:01.000224,15.49167005,.00011358,97.2851,238.6195,94.9288,199.6812,0,U,69668,999,459,.13148599E-2,.72022E-3,0
STARLINK-37945,2026-143W,2026-07-13T14:00:01.000224,15.49170101,.0001674,97.2916,238.6497,100.6116,265.8958,0,U,69669,999,460,.10474028E-2,.57253E-3,0
STARLINK-37948,2026-143X,2026-07-13T15:07:20.873280,15.49204498,.00002977,97.2859,238.5855,4.8787,355.2467,0,U,69670,999,457,.53876572E-3,.29336E-3,0
STARLINK-37949,2026-143Y,2026-07-13T14:00:01.000224,15.49167178,.00006246,97.2847,238.5945,103.2444,132.2564,0,U,69671,999,460,.13256353E-2,.72619E-3,0
STARLINK-37946,2026-143Z,2026-07-13T14:00:01.000224,15.49166318,.00012005,97.2849,238.6287,88.6769,224.4782,0,U,69672,999,460,.12881617E-2,.70543E-3,0
TJS-26A,2026-144A,2026-07-12T07:10:37.543296,1.00274367,.0004208,6.9538,323.2302,347.4913,194.6526,0,U,69674,999,19,0,-.341E-5,0
CZ-7A R/B,2026-144B,2026-07-13T03:28:19.376544,2.56672103,.71174185,19.4499,315.9953,194.9542,121.1588,0,U,69675,999,51,.7944999E-3,.733822E-2,-.7092637E-5
